KEPLER-21               
1 56218U 23054AS  26068.80780274  .00079942  00000+0  58135-3 0  9999
2 56218  97.2962 342.6260 0004885  55.6816 304.4910 15.73096759163494
STARLINK-11365 [DTC]    
1 62886U 25024H   26068.58575256  .00073856  00000+0  57319-3 0  9994
2 62886  42.9993 181.7792 0001911 281.1969  78.8684 15.70871886 63451
