[{"OBJECT_NAME":"KEPLER-21","OBJECT_ID":"2023-054AS","EPOCH":"2026-03-09T19:23:14.157600","MEAN_MOTION":15.73096759,"ECCENTRICITY":0.00048854,"INCLINATION":97.2962,"RA_OF_ASC_NODE":342.626,"ARG_OF_PERICENTER":55.6816,"MEAN_ANOMALY":304.491,"EPHEMERIS_TYPE":0,"CLASSIFICATION_TYPE":"U","NORAD_CAT_ID":56218,"ELEMENT_SET_NO":999,"REV_AT_EPOCH":16349,"BSTAR":0.0005813485,"MEAN_MOTION_DOT":0.00079942,"MEAN_MOTION_DDOT":0},{"OBJECT_NAME":"STARLINK-11365 [DTC]","OBJECT_ID":"2025-024H","EPOCH":"2026-03-09T14:03:29.021184","MEAN_MOTION":15.70871886,"ECCENTRICITY":0.0001911,"INCLINATION":42.9993,"RA_OF_ASC_NODE":181.7792,"ARG_OF_PERICENTER":281.1969,"MEAN_ANOMALY":78.8684,"EPHEMERIS_TYPE":0,"CLASSIFICATION_TYPE":"U","NORAD_CAT_ID":62886,"ELEMENT_SET_NO":999,"REV_AT_EPOCH":6345,"BSTAR":0.00057319,"MEAN_MOTION_DOT":0.00073856,"MEAN_MOTION_DDOT":0}]
